[{"OBJECT_NAME":"STARLINK-4119","OBJECT_ID":"2022-076AS","EPOCH":"2026-03-09T07:56:04.754976","MEAN_MOTION":15.08835292,"ECCENTRICITY":0.00013885,"INCLINATION":53.2168,"RA_OF_ASC_NODE":85.6282,"ARG_OF_PERICENTER":96.2514,"MEAN_ANOMALY":263.8637,"EPHEMERIS_TYPE":0,"CLASSIFICATION_TYPE":"U","NORAD_CAT_ID":53026,"ELEMENT_SET_NO":999,"REV_AT_EPOCH":20293,"BSTAR":-3.145968e-5,"MEAN_MOTION_DOT":-7.88e-6,"MEAN_MOTION_DDOT":0},{"OBJECT_NAME":"LEMUR-2-AHMED-ASRAR","OBJECT_ID":"2024-149DN","EPOCH":"2026-03-09T17:35:01.338432","MEAN_MOTION":15.10376432,"ECCENTRICITY":0.00016334,"INCLINATION":97.7021,"RA_OF_ASC_NODE":152.9847,"ARG_OF_PERICENTER":18.5035,"MEAN_ANOMALY":341.6253,"EPHEMERIS_TYPE":0,"CLASSIFICATION_TYPE":"U","NORAD_CAT_ID":60576,"ELEMENT_SET_NO":999,"REV_AT_EPOCH":8554,"BSTAR":0.0007977347,"MEAN_MOTION_DOT":0.00013045,"MEAN_MOTION_DDOT":0}]
